start=new Date('2022-08-05T00:00:00.000Z').valueOf();
sats=[{"MEAN_MOTION":"15.06392812","ARG_OF_PERICENTER":"86.3036","MEAN_ANOMALY":"273.8137","EPOCH":"2022-08-04T15:01:20.421984","SEMIMAJOR_AXIS":"6925.371","TIME_SYSTEM":"UTC","RCS_SIZE":"LARGE","GP_ID":"209586191","OBJECT_ID":"2019-074AG","REF_FRAME":"TEME","INCLINATION":"53.0557","CLASSIFICATION_TYPE":"U","OBJECT_TYPE":"PAYLOAD","BSTAR":"-0.00001650700000","FILE":"3529274","TLE_LINE1":"1 44743U 19074AG  22216.62593081 -.00000527  00000-0 -16507-4 0  9999","PERIOD":"95.593","ELEMENT_SET_NO":"999","RA_OF_ASC_NODE":"1.2024","OBJECT_NAME":"STARLINK-1038","PERIAPSIS":"546.118","COUNTRY_CODE":"US","REV_AT_EPOCH":"15037","ECCENTRICITY":"0.00016140","LAUNCH_DATE":"2019-11-11","SITE":"AFETR","MEAN_ELEMENT_THEORY":"SGP4","TLE_LINE2":"2 44743  53.0557   1.2024 0001614  86.3036 273.8137 15.06392812150370","MEAN_MOTION_DDOT":"0.0000000000000","CENTER_NAME":"EARTH","EPHEMERIS_TYPE":"0","APOAPSIS":"548.353","DECAY_DATE":null,"MEAN_MOTION_DOT":"-0.00000527","NORAD_CAT_ID":"44743"},{"RA_OF_ASC_NODE":"0.2528","OBJECT_NAME":"STARLINK-1039","REV_AT_EPOCH":"15048","COUNTRY_CODE":"US","PERIAPSIS":"545.973","TLE_LINE1":"1 44744U 19074AH  22216.83602310  .00000549  00000-0  55763-4 0  9998","FILE":"3529162","PERIOD":"95.592","ELEMENT_SET_NO":"999","EPHEMERIS_TYPE":"0","CENTER_NAME":"EARTH","MEAN_MOTION_DOT":"0.00000549","DECAY_DATE":null,"APOAPSIS":"548.431","NORAD_CAT_ID":"44744","SITE":"AFETR","ECCENTRICITY":"0.00017740","LAUNCH_DATE":"2019-11-11","TLE_LINE2":"2 44744  53.0572   0.2528 0001774 109.2605 250.8576 15.06403784150485","MEAN_ELEMENT_THEORY":"SGP4","MEAN_MOTION_DDOT":"0.0000000000000","MEAN_ANOMALY":"250.8576","EPOCH":"2022-08-04T20:03:52.395840","TIME_SYSTEM":"UTC","SEMIMAJOR_AXIS":"6925.337","MEAN_MOTION":"15.06403784","ARG_OF_PERICENTER":"109.2605","REF_FRAME":"TEME","OBJECT_ID":"2019-074AH","INCLINATION":"53.0572","CLASSIFICATION_TYPE":"U","BSTAR":"0.00005576300000","OBJECT_TYPE":"PAYLOAD","GP_ID":"209565250","RCS_SIZE":"LARGE"},{"ELEMENT_SET_NO":"999","TLE_LINE1":"1 44746U 19074AK  22216.82128694 -.00000758  00000-0 -32025-4 0  9997","FILE":"3529274","PERIOD":"95.592","OBJECT_NAME":"STARLINK-1041","COUNTRY_CODE":"US","REV_AT_EPOCH":"15031","PERIAPSIS":"546.251","RA_OF_ASC_NODE":"0.3253","MEAN_MOTION_DDOT":"0.0000000000000","SITE":"AFETR","LAUNCH_DATE":"2019-11-11","ECCENTRICITY":"0.00014010","TLE_LINE2":"2 44746  53.0562   0.3253 0001401  78.8536 281.2610 15.06397496150314","MEAN_ELEMENT_THEORY":"SGP4","NORAD_CAT_ID":"44746","EPHEMERIS_TYPE":"0","CENTER_NAME":"EARTH","MEAN_MOTION_DOT":"-0.00000758","APOAPSIS":"548.191","DECAY_DATE":null,"MEAN_MOTION":"15.06397496","ARG_OF_PERICENTER":"78.8536","MEAN_ANOMALY":"281.2610","EPOCH":"2022-08-04T19:42:39.191616","SEMIMAJOR_AXIS":"6925.356","TIME_SYSTEM":"UTC","GP_ID":"209587193","RCS_SIZE":"LARGE","INCLINATION":"53.0562","CLASSIFICATION_TYPE":"U","BSTAR":"-0.00003202500000","OBJECT_TYPE":"PAYLOAD","OBJECT_ID":"2019-074AK","REF_FRAME":"TEME"},{"ARG_OF_PERICENTER":"94.8543","MEAN_MOTION":"15.06397405","SEMIMAJOR_AXIS":"6925.357","TIME_SYSTEM":"UTC","EPOCH":"2022-08-04T18:49:34.532544","MEAN_ANOMALY":"265.2573","RCS_SIZE":"LARGE","GP_ID":"209565493","OBJECT_ID":"2019-074AL","REF_FRAME":"TEME","OBJECT_TYPE":"PAYLOAD","BSTAR":"0.00002395600000","CLASSIFICATION_TYPE":"U","INCLINATION":"53.0543","PERIOD":"95.592","FILE":"3529163","TLE_LINE1":"1 44747U 19074AL  22216.78442746  .00000075  00000-0  23956-4 0  9993","ELEMENT_SET_NO":"999","RA_OF_ASC_NODE":"0.4952","PERIAPSIS":"546.454","COUNTRY_CODE":"US","REV_AT_EPOCH":"15048","OBJECT_NAME":"STARLINK-1042","MEAN_ELEMENT_THEORY":"SGP4","TLE_LINE2":"2 44747  53.0543   0.4952 0001108  94.8543 265.2573 15.06397405150489","ECCENTRICITY":"0.00011080","LAUNCH_DATE":"2019-11-11","SITE":"AFETR","MEAN_MOTION_DDOT":"0.0000000000000","DECAY_DATE":null,"APOAPSIS":"547.989","MEAN_MOTION_DOT":"0.00000075","CENTER_NAME":"EARTH","EPHEMERIS_TYPE":"0","NORAD_CAT_ID":"44747"},{"RCS_SIZE":"LARGE","GP_ID":"209586691","INCLINATION":"53.0550","CLASSIFICATION_TYPE":"U","OBJECT_TYPE":"PAYLOAD","BSTAR":"-0.00000585760000","OBJECT_ID":"2019-074AM","REF_FRAME":"TEME","MEAN_MOTION":"15.06400572","ARG_OF_PERICENTER":"74.9737","MEAN_ANOMALY":"285.1399","EPOCH":"2022-08-04T19:32:02.103936","SEMIMAJOR_AXIS":"6925.347","TIME_SYSTEM":"UTC","MEAN_MOTION_DDOT":"0.0000000000000","LAUNCH_DATE":"2019-11-11","ECCENTRICITY":"0.00013240","SITE":"AFETR","MEAN_ELEMENT_THEORY":"SGP4","TLE_LINE2":"2 44748  53.0550   0.3478 0001324  74.9737 285.1399 15.06400572150313","NORAD_CAT_ID":"44748","CENTER_NAME":"EARTH","EPHEMERIS_TYPE":"0","DECAY_DATE":null,"APOAPSIS":"548.129","MEAN_MOTION_DOT":"-0.00000369","ELEMENT_SET_NO":"999","FILE":"3529274","TLE_LINE1":"1 44748U 19074AM  22216.81391324 -.00000369  00000-0 -58576-5 0  9998","PERIOD":"95.592","OBJECT_NAME":"STARLINK-1043","PERIAPSIS":"546.295","COUNTRY_CODE":"US","REV_AT_EPOCH":"15031","RA_OF_ASC_NODE":"0.3478"},{"GP_ID":"209565281","RCS_SIZE":"LARGE","REF_FRAME":"TEME","OBJECT_ID":"2019-074AQ","BSTAR":"0.00002088800000","OBJECT_TYPE":"PAYLOAD","INCLINATION":"53.0568","CLASSIFICATION_TYPE":"U","ARG_OF_PERICENTER":"81.1985","MEAN_MOTION":"15.06392507","TIME_SYSTEM":"UTC","SEMIMAJOR_AXIS":"6925.372","MEAN_ANOMALY":"278.9156","EPOCH":"2022-08-04T18:17:43.806912","TLE_LINE2":"2 44751  53.0568   0.5881 0001338  81.1985 278.9156 15.06392507150472","MEAN_ELEMENT_THEORY":"SGP4","SITE":"AFETR","LAUNCH_DATE":"2019-11-11","ECCENTRICITY":"0.00013380","MEAN_MOTION_DDOT":"0.0000000000000","MEAN_MOTION_DOT":"0.00000030","DECAY_DATE":null,"APOAPSIS":"548.163","EPHEMERIS_TYPE":"0","CENTER_NAME":"EARTH","NORAD_CAT_ID":"44751","PERIOD":"95.593","TLE_LINE1":"1 44751U 19074AQ  22216.76231258  .00000030  00000-0  20888-4 0  9992","FILE":"3529178","ELEMENT_SET_NO":"999","RA_OF_ASC_NODE":"0.5881","REV_AT_EPOCH":"15047","COUNTRY_CODE":"US","PERIAPSIS":"546.310","OBJECT_NAME":"STARLINK-1046"},{"SEMIMAJOR_AXIS":"6925.367","TIME_SYSTEM":"UTC","MEAN_ANOMALY":"281.4811","EPOCH":"2022-08-04T17:11:22.932960","ARG_OF_PERICENTER":"78.6336","MEAN_MOTION":"15.06393954","OBJECT_ID":"2019-074AR","REF_FRAME":"TEME","BSTAR":"0.00001975900000","OBJECT_TYPE":"PAYLOAD","INCLINATION":"53.0567","CLASSIFICATION_TYPE":"U","GP_ID":"209587693","RCS_SIZE":"LARGE","RA_OF_ASC_NODE":"340.7962","REV_AT_EPOCH":"15057","COUNTRY_CODE":"US","PERIAPSIS":"546.256","OBJECT_NAME":"STARLINK-1047","PERIOD":"95.593","TLE_LINE1":"1 44752U 19074AR  22216.71623765  .00000013  00000-0  19759-4 0  9992","FILE":"3529274","ELEMENT_SET_NO":"999","MEAN_MOTION_DOT":"0.00000013","APOAPSIS":"548.209","DECAY_DATE":null,"EPHEMERIS_TYPE":"0","CENTER_NAME":"EARTH","NORAD_CAT_ID":"44752","TLE_LINE2":"2 44752  53.0567 340.7962 0001410  78.6336 281.4811 15.06393954150578","MEAN_ELEMENT_THEORY":"SGP4","SITE":"AFETR","LAUNCH_DATE":"2019-11-11","ECCENTRICITY":"0.00014100","MEAN_MOTION_DDOT":"0.0000000000000"},{"RA_OF_ASC_NODE":"320.7693","OBJECT_NAME":"STARLINK-1048","PERIAPSIS":"546.519","REV_AT_EPOCH":"15085","COUNTRY_CODE":"US","FILE":"3529274","TLE_LINE1":"1 44753U 19074AS  22216.72176971 -.00001416  00000-0 -76228-4 0  9990","PERIOD":"95.593","ELEMENT_SET_NO":"999","CENTER_NAME":"EARTH","EPHEMERIS_TYPE":"0","APOAPSIS":"547.966","DECAY_DATE":null,"MEAN_MOTION_DOT":"-0.00001416","NORAD_CAT_ID":"44753","ECCENTRICITY":"0.00010450","LAUNCH_DATE":"2019-11-11","SITE":"AFETR","MEAN_ELEMENT_THEORY":"SGP4","TLE_LINE2":"2 44753  53.0558 320.7693 0001045  87.9745 272.1364 15.06390654150854","MEAN_MOTION_DDOT":"0.0000000000000","MEAN_ANOMALY":"272.1364","EPOCH":"2022-08-04T17:19:20.902944","SEMIMAJOR_AXIS":"6925.377","TIME_SYSTEM":"UTC","MEAN_MOTION":"15.06390654","ARG_OF_PERICENTER":"87.9745","REF_FRAME":"TEME","OBJECT_ID":"2019-074AS","INCLINATION":"53.0558","CLASSIFICATION_TYPE":"U","OBJECT_TYPE":"PAYLOAD","BSTAR":"-0.00007622800000","RCS_SIZE":"LARGE","GP_ID":"209587443"},{"BSTAR":"0.00003373400000","OBJECT_TYPE":"PAYLOAD","CLASSIFICATION_TYPE":"U","INCLINATION":"53.0557","REF_FRAME":"TEME","OBJECT_ID":"2019-074AT","GP_ID":"209586192","RCS_SIZE":"LARGE","TIME_SYSTEM":"UTC","SEMIMAJOR_AXIS":"6925.360","EPOCH":"2022-08-04T14:13:34.520160","MEAN_ANOMALY":"277.9844","ARG_OF_PERICENTER":"82.1295","MEAN_MOTION":"15.06396114","NORAD_CAT_ID":"44754","MEAN_MOTION_DOT":"0.00000221","APOAPSIS":"548.139","DECAY_DATE":null,"EPHEMERIS_TYPE":"0","CENTER_NAME":"EARTH","MEAN_MOTION_DDOT":"0.0000000000000","TLE_LINE2":"2 44754  53.0557 321.3497 0001319  82.1295 277.9844 15.06396114150835","MEAN_ELEMENT_THEORY":"SGP4","SITE":"AFETR","LAUNCH_DATE":"2019-11-11","ECCENTRICITY":"0.00013190","COUNTRY_CODE":"US","REV_AT_EPOCH":"15083","PERIAPSIS":"546.312","OBJECT_NAME":"STARLINK-1049","RA_OF_ASC_NODE":"321.3497","ELEMENT_SET_NO":"999","PERIOD":"95.592","TLE_LINE1":"1 44754U 19074AT  22216.59276065  .00000221  00000-0  33734-4 0  9997","FILE":"3529274"},{"OBJECT_TYPE":"PAYLOAD","BSTAR":"0.00020881000000","CLASSIFICATION_TYPE":"U","INCLINATION":"53.0570","REF_FRAME":"TEME","OBJECT_ID":"2019-074AW","RCS_SIZE":"LARGE","GP_ID":"209586942","SEMIMAJOR_AXIS":"6925.345","TIME_SYSTEM":"UTC","EPOCH":"2022-08-04T17:27:18.094464","MEAN_ANOMALY":"272.5869","ARG_OF_PERICENTER":"87.5268","MEAN_MOTION":"15.06401260","NORAD_CAT_ID":"44757","DECAY_DATE":null,"APOAPSIS":"548.104","MEAN_MOTION_DOT":"0.00002830","CENTER_NAME":"EARTH","EPHEMERIS_TYPE":"0","MEAN_MOTION_DDOT":"0.0000000000000","MEAN_ELEMENT_THEORY":"SGP4","TLE_LINE2":"2 44757  53.0570 340.7448 0001292  87.5268 272.5869 15.06401260150571","LAUNCH_DATE":"2019-11-11","ECCENTRICITY":"0.00012920","SITE":"AFETR","PERIAPSIS":"546.315","REV_AT_EPOCH":"15057","COUNTRY_CODE":"US","OBJECT_NAME":"STARLINK-1052","RA_OF_ASC_NODE":"340.7448","ELEMENT_SET_NO":"999","PERIOD":"95.592","FILE":"3529274","TLE_LINE1":"1 44757U 19074AW  22216.72729276  .00002830  00000-0  20881-3 0  9998"}];
